{
  "type": "FeatureCollection",
  "features": [
    {
      "type": "Feature",
      "properties": {
        "norad_id": 22490,
        "name": "SCD 1",
        "group": "resource",
        "lat": 13.680857771873,
        "lon": -56.688821327128544,
        "alt_km": 718.6263425439229,
        "timestamp": "2025-12-13T20:38:50.651110+00:00",
        "meta_object_name": "SCD 1",
        "meta_object_id": "1993-009B",
        "meta_epoch": "2025-12-13T04:33:38.312064",
        "meta_mean_motion": 14.45999655,
        "meta_eccentricity": 0.00418149,
        "meta_inclination": 24.9698,
        "meta_ra_of_asc_node": 275.908,
        "meta_arg_of_pericenter": 329.8154,
        "meta_mean_anomaly": 167.6092,
        "meta_ephemeris_type": 0,
        "meta_classification_type": "U",
        "meta_norad_cat_id": 22490,
        "meta_element_set_no": 999,
        "meta_rev_at_epoch": 73416,
        "meta_bstar": 0.00014602471,
        "meta_mean_motion_dot": 7.2e-06,
        "meta_mean_motion_ddot": 0,
        "tle_line1": "1 22490U 93009B   25347.19002676  .00000720  00000+0  14602-3 0  9994",
        "tle_line2": "2 22490  24.9698 275.9080 0041814 329.8154 167.6092 14.45999655734167"
      },
      "geometry": {
        "type": "Point",
        "coordinates": [
          -56.688821327128544,
          13.680857771873
        ]
      }
    },
    {
      "type": "Feature",
      "properties": {
        "norad_id": 25397,
        "name": "TECHSAT 1B (GO-32)",
        "group": "resource",
        "lat": 27.6265296699589,
        "lon": 155.85185009943262,
        "alt_km": 809.5537598056499,
        "timestamp": "2025-12-13T20:38:50.651137+00:00",
        "meta_object_name": "TECHSAT 1B (GO-32)",
        "meta_object_id": "1998-043D",
        "meta_epoch": "2025-12-13T04:45:49.563648",
        "meta_mean_motion": 14.24377217,
        "meta_eccentricity": 0.00020392,
        "meta_inclination": 98.992,
        "meta_ra_of_asc_node": 330.4211,
        "meta_arg_of_pericenter": 56.6374,
        "meta_mean_anomaly": 303.4999,
        "meta_ephemeris_type": 0,
        "meta_classification_type": "U",
        "meta_norad_cat_id": 25397,
        "meta_element_set_no": 999,
        "meta_rev_at_epoch": 42485,
        "meta_bstar": 9.0488348e-05,
        "meta_mean_motion_dot": 1.63e-06,
        "meta_mean_motion_ddot": 0,
        "tle_line1": "1 25397U 98043D   25347.19849032  .00000163  00000+0  90488-4 0  9999",
        "tle_line2": "2 25397  98.9920 330.4211 0002039  56.6374 303.4999 14.24377217424852"
      },
      "geometry": {
        "type": "Point",
        "coordinates": [
          155.85185009943262,
          27.6265296699589
        ]
      }
    },
    {
      "type": "Feature",
      "properties": {
        "norad_id": 25504,
        "name": "SCD 2",
        "group": "resource",
        "lat": 22.23079162808481,
        "lon": -163.68677243210217,
        "alt_km": 737.0441910723785,
        "timestamp": "2025-12-13T20:38:50.651152+00:00",
        "meta_object_name": "SCD 2",
        "meta_object_id": "1998-060A",
        "meta_epoch": "2025-12-12T17:56:46.046688",
        "meta_mean_motion": 14.45423471,
        "meta_eccentricity": 0.00166549,
        "meta_inclination": 24.9933,
        "meta_ra_of_asc_node": 141.8465,
        "meta_arg_of_pericenter": 313.7297,
        "meta_mean_anomaly": 68.7779,
        "meta_ephemeris_type": 0,
        "meta_classification_type": "U",
        "meta_norad_cat_id": 25504,
        "meta_element_set_no": 999,
        "meta_rev_at_epoch": 43332,
        "meta_bstar": 0.00011955231,
        "meta_mean_motion_dot": 6.1e-06,
        "meta_mean_motion_ddot": 0,
        "tle_line1": "1 25504U 98060A   25346.74775517  .00000610  00000+0  11955-3 0  9992",
        "tle_line2": "2 25504  24.9933 141.8465 0016654 313.7297  68.7779 14.45423471433325"
      },
      "geometry": {
        "type": "Point",
        "coordinates": [
          -163.68677243210217,
          22.23079162808481
        ]
      }
    },
    {
      "type": "Feature",
      "properties": {
        "norad_id": 25757,
        "name": "DLR-TUBSAT",
        "group": "resource",
        "lat": 56.20743664865546,
        "lon": 165.56617755129457,
        "alt_km": 708.6245788409824,
        "timestamp": "2025-12-13T20:38:50.651165+00:00",
        "meta_object_name": "DLR-TUBSAT",
        "meta_object_id": "1999-029B",
        "meta_epoch": "2025-12-13T06:51:21.121632",
        "meta_mean_motion": 14.52358092,
        "meta_eccentricity": 0.00139401,
        "meta_inclination": 98.6564,
        "meta_ra_of_asc_node": 331.8162,
        "meta_arg_of_pericenter": 191.1187,
        "meta_mean_anomaly": 168.9701,
        "meta_ephemeris_type": 0,
        "meta_classification_type": "U",
        "meta_norad_cat_id": 25757,
        "meta_element_set_no": 999,
        "meta_rev_at_epoch": 40626,
        "meta_bstar": 7.445849e-05,
        "meta_mean_motion_dot": 2.55e-06,
        "meta_mean_motion_ddot": 0,
        "tle_line1": "1 25757U 99029B   25347.28566113  .00000255  00000+0  74458-4 0  9991",
        "tle_line2": "2 25757  98.6564 331.8162 0013940 191.1187 168.9701 14.52358092406264"
      },
      "geometry": {
        "type": "Point",
        "coordinates": [
          165.56617755129457,
          56.20743664865546
        ]
      }
    },
    {
      "type": "Feature",
      "properties": {
        "norad_id": 25994,
        "name": "TERRA",
        "group": "resource",
        "lat": -40.092889329788946,
        "lon": -147.27415591010893,
        "alt_km": 698.378882359063,
        "timestamp": "2025-12-13T20:38:50.651178+00:00",
        "meta_object_name": "TERRA",
        "meta_object_id": "1999-068A",
        "meta_epoch": "2025-12-13T06:39:55.450368",
        "meta_mean_motion": 14.60903225,
        "meta_eccentricity": 0.00036061,
        "meta_inclination": 97.975,
        "meta_ra_of_asc_node": 38.9425,
        "meta_arg_of_pericenter": 93.4054,
        "meta_mean_anomaly": 304.908,
        "meta_ephemeris_type": 0,
        "meta_classification_type": "U",
        "meta_norad_cat_id": 25994,
        "meta_element_set_no": 999,
        "meta_rev_at_epoch": 38246,
        "meta_bstar": 0.00017670249,
        "meta_mean_motion_dot": 8.2e-06,
        "meta_mean_motion_ddot": 0,
        "tle_line1": "1 25994U 99068A   25347.27772512  .00000820  00000+0  17670-3 0  9998",
        "tle_line2": "2 25994  97.9750  38.9425 0003606  93.4054 304.9080 14.60903225382468"
      },
      "geometry": {
        "type": "Point",
        "coordinates": [
          -147.27415591010893,
          -40.092889329788946
        ]
      }
    },
    {
      "type": "Feature",
      "properties": {
        "norad_id": 27004,
        "name": "MAROC-TUBSAT",
        "group": "resource",
        "lat": -23.726322101085668,
        "lon": -28.028024636670303,
        "alt_km": 995.5458218929753,
        "timestamp": "2025-12-13T20:38:50.651190+00:00",
        "meta_object_name": "MAROC-TUBSAT",
        "meta_object_id": "2001-056D",
        "meta_epoch": "2025-12-13T07:43:28.564032",
        "meta_mean_motion": 13.70252919,
        "meta_eccentricity": 0.00191036,
        "meta_inclination": 99.7912,
        "meta_ra_of_asc_node": 155.777,
        "meta_arg_of_pericenter": 258.5926,
        "meta_mean_anomaly": 170.8262,
        "meta_ephemeris_type": 0,
        "meta_classification_type": "U",
        "meta_norad_cat_id": 27004,
        "meta_element_set_no": 999,
        "meta_rev_at_epoch": 20073,
        "meta_bstar": 4.7871362e-05,
        "meta_mean_motion_dot": -4e-08,
        "meta_mean_motion_ddot": 0,
        "tle_line1": "1 27004U 01056D   25347.32185838 -.00000004  00000+0  47871-4 0  9999",
        "tle_line2": "2 27004  99.7912 155.7770 0019103 258.5926 170.8262 13.70252919200732"
      },
      "geometry": {
        "type": "Point",
        "coordinates": [
          -28.028024636670303,
          -23.726322101085668
        ]
      }
    },
    {
      "type": "Feature",
      "properties": {
        "norad_id": 27424,
        "name": "AQUA",
        "group": "resource",
        "lat": 77.54648891247221,
        "lon": 170.77769926541086,
        "alt_km": 679.2393945024687,
        "timestamp": "2025-12-13T20:38:50.651202+00:00",
        "meta_object_name": "AQUA",
        "meta_object_id": "2002-022A",
        "meta_epoch": "2025-12-13T07:47:38.774112",
        "meta_mean_motion": 14.61812555,
        "meta_eccentricity": 0.00011513,
        "meta_inclination": 98.4037,
        "meta_ra_of_asc_node": 308.2133,
        "meta_arg_of_pericenter": 114.819,
        "meta_mean_anomaly": 47.6819,
        "meta_ephemeris_type": 0,
        "meta_classification_type": "U",
        "meta_norad_cat_id": 27424,
        "meta_element_set_no": 999,
        "meta_rev_at_epoch": 25611,
        "meta_bstar": 0.00040327894,
        "meta_mean_motion_dot": 1.965e-05,
        "meta_mean_motion_ddot": 0,
        "tle_line1": "1 27424U 02022A   25347.32475433  .00001965  00000+0  40328-3 0  9997",
        "tle_line2": "2 27424  98.4037 308.2133 0001151 114.8190  47.6819 14.61812555256112"
      },
      "geometry": {
        "type": "Point",
        "coordinates": [
          170.77769926541086,
          77.54648891247221
        ]
      }
    }
  ]
}